GLOBALSTAR M024         
1 25883U 99043A   24302.69661218 -.00000083  00000+0 -63226-3 0  9995
2 25883  51.9989 182.9463 0002432  70.8713 321.6105 11.10159551 89159
GLOBALSTAR M027         
1 25884U 99043B   24302.87455556 -.00000059  00000+0  17955-3 0  9992
2 25884  52.0206 253.9715 0021563 339.4069  20.5853 11.04371116115686
GLOBALSTAR M054         
1 25885U 99043C   24302.77148293 -.00000071  00000+0  10500-4 0  9993
2 25885  52.0153  60.3315 0006662 140.4470  12.9045 11.39205251 92678
GLOBALSTAR M053         
1 25886U 99043D   24302.92163882 -.00000036  00000+0  95299-3 0  9990
2 25886  52.0021 354.2406 0003475  53.4180 117.3641 11.27659797 93352
GLOBALSTAR M058         
1 25907U 99049A   24302.85037360  .00000059  00000+0  19289-2 0  9991
2 25907  51.9974   6.9005 0002110 176.9797 183.1051 11.93188527513924
GLOBALSTAR M050         
1 25908U 99049B   24302.69657565 -.00000071  00000+0  19740-3 0  9997
2 25908  52.0021  32.2790 0008492 290.0416 223.8273 12.07442896120221
GLOBALSTAR M033         
1 25909U 99049C   24302.62794681  .00000011  00000+0  98817-3 0  9997
2 25909  51.9910 280.2985 0012727 146.3039 213.8620 12.20290103507476
GLOBALSTAR M055         
1 25910U 99049D   24302.71190568 -.00000037  00000+0  49252-3 0  9991
2 25910  52.0025 302.0756 0007314  13.0913 347.0127 12.29412608139819
